[{"OBJECT_NAME":"STARLINK-1553","OBJECT_ID":"2020-062Z","EPOCH":"2026-03-09T21:21:38.690496","MEAN_MOTION":15.36665572,"ECCENTRICITY":0.00049977,"INCLINATION":53.0381,"RA_OF_ASC_NODE":305.9588,"ARG_OF_PERICENTER":144.0342,"MEAN_ANOMALY":216.0997,"EPHEMERIS_TYPE":0,"CLASSIFICATION_TYPE":"U","NORAD_CAT_ID":46348,"ELEMENT_SET_NO":999,"REV_AT_EPOCH":30532,"BSTAR":0.00060638819,"MEAN_MOTION_DOT":0.00021714,"MEAN_MOTION_DDOT":0},{"OBJECT_NAME":"LEMUR-2-CAEL","OBJECT_ID":"2024-022E","EPOCH":"2026-03-09T13:30:59.818176","MEAN_MOTION":15.37664327,"ECCENTRICITY":0.0009522,"INCLINATION":97.4213,"RA_OF_ASC_NODE":278.283,"ARG_OF_PERICENTER":94.7172,"MEAN_ANOMALY":265.516,"EPHEMERIS_TYPE":0,"CLASSIFICATION_TYPE":"U","NORAD_CAT_ID":58903,"ELEMENT_SET_NO":999,"REV_AT_EPOCH":11701,"BSTAR":0.0005045,"MEAN_MOTION_DOT":0.00018622,"MEAN_MOTION_DDOT":0}]
